NORAD_CAT_ID,OBJECT_NAME,OBJECT_TYPE,EPOCH,MEAN_MOTION,ECCENTRICITY,INCLINATION,RA_OF_ASC_NODE,ARG_OF_PERICENTER,MEAN_ANOMALY,BSTAR,MEAN_MOTION_DOT,MEAN_MOTION_DDOT,TLE_LINE0,TLE_LINE1,TLE_LINE2,SEMIMAJOR_AXIS,PERIOD,APOGEE,PERIGEE,DECAYED
54762.0,STARLINK-5214,PAYLOAD,2023-12-18 13:22:55,15.08857257,0.0001492,53.2175,89.9977,77.8294,282.2865,0.00021772,3.18e-05,0.0,0 STARLINK-5214,1 54762U 22175E   23352.55758723  .00003180  00000-0  21772-3 0  9992,2 54762  53.2175  89.9977 0001492  77.8294 282.2865 15.08857257 57318,6917.828,95.436,540.725,538.661,0.0
54762.0,STARLINK-5214,PAYLOAD,2023-12-19 11:38:19,15.0884616,0.0001334,53.2182,85.8326,96.0438,264.0706,6.3398e-05,7.21e-06,0.0,0 STARLINK-5214,1 54762U 22175E   23353.48494877  .00000721  00000-0  63398-4 0  9991,2 54762  53.2182  85.8326 0001334  96.0438 264.0706 15.08846160 55295,6917.862,95.437,540.649,538.804,0.0
54762.0,STARLINK-5214,PAYLOAD,2023-12-19 13:13:42,15.08847346,0.0001354,53.2178,85.5357,98.1109,262.0036,9.0631e-05,1.155e-05,0.0,0 STARLINK-5214,1 54762U 22175E   23353.55118809  .00001155  00000-0  90631-4 0  9999,2 54762  53.2178  85.5357 0001354  98.1109 262.0036 15.08847346 57463,6917.858,95.437,540.66,538.786,0.0
54762.0,STARLINK-5214,PAYLOAD,2023-12-20 11:29:07,15.08831629,0.0001356,53.2173,81.3738,82.4616,277.6531,-0.00012836,-2.33e-05,0.0,0 STARLINK-5214,1 54762U 22175E   23354.47855690 -.00002330  00000-0 -12836-3 0  9995,2 54762  53.2173  81.3738 0001356  82.4616 277.6531 15.08831629 55441,6917.906,95.438,540.709,538.833,0.0
54762.0,STARLINK-5214,PAYLOAD,2023-12-21 11:19:54,15.08843113,0.000179,53.2177,76.9129,52.1124,308.003,0.00029894,4.473e-05,0.0,0 STARLINK-5214,1 54762U 22175E   23355.47215924  .00004473  00000-0  29894-3 0  9996,2 54762  53.2177  76.9129 0001790  52.1124 308.0030 15.08843113 57759,6917.871,95.437,540.974,538.498,0.0
54762.0,STARLINK-5214,PAYLOAD,2023-12-22 11:10:41,15.08842265,0.0001571,53.2183,72.4469,104.6177,255.499,0.00014197,1.972e-05,0.0,0 STARLINK-5214,1 54762U 22175E   23356.46575898  .00001972  00000-0  14197-3 0  9996,2 54762  53.2183  72.4469 0001571 104.6177 255.4990 15.08842265 55746,6917.873,95.437,540.825,538.652,0.0
54762.0,STARLINK-5214,PAYLOAD,2023-12-22 12:46:04,15.08842024,0.0001517,53.2181,72.1504,87.5586,272.558,0.00014784,2.066e-05,0.0,0 STARLINK-5214,1 54762U 22175E   23356.53200001  .00002066  00000-0  14784-3 0  9992,2 54762  53.2181  72.1504 0001517  87.5586 272.5580 15.08842024 57913,6917.874,95.437,540.789,538.69,0.0
54762.0,STARLINK-5214,PAYLOAD,2023-12-23 11:01:28,15.08840689,0.0001599,53.2177,67.9975,82.6191,277.4983,2.6822e-05,1.39e-06,0.0,0 STARLINK-5214,1 54762U 22175E   23357.45936298  .00000139  00000-0  26822-4 0  9994,2 54762  53.2177  67.9975 0001599  82.6191 277.4983 15.08840689 55891,6917.878,95.438,540.849,538.637,0.0
54762.0,STARLINK-5214,PAYLOAD,2023-12-23 12:36:51,15.08846963,0.0001561,53.2177,67.7005,82.3791,277.7378,1.7101e-05,-1.6e-07,0.0,0 STARLINK-5214,1 54762U 22175E   23357.52559869 -.00000016  00000-0  17101-4 0  9992,2 54762  53.2177  67.7005 0001561  82.3791 277.7378 15.08846963 58069,6917.859,95.437,540.804,538.644,0.0
54762.0,STARLINK-5214,PAYLOAD,2023-12-24 04:30:44,15.08828893,0.0001595,53.2184,64.7269,84.4233,275.6941,5.6742e-06,-1.98e-06,0.0,0 STARLINK-5214,1 54762U 22175E   23358.18801436 -.00000198  00000-0  56742-5 0  9991,2 54762  53.2184  64.7269 0001595  84.4233 275.6941 15.08828893 56004,6917.914,95.438,540.883,538.676,0.0
54762.0,STARLINK-5214,PAYLOAD,2023-12-24 10:52:17,15.08822212,0.0001448,53.2177,63.5358,76.4819,283.6334,-6.5947e-05,-1.337e-05,0.0,0 STARLINK-5214,1 54762U 22175E   23358.45298094 -.00001337  00000-0 -65947-4 0  9994,2 54762  53.2177  63.5358 0001448  76.4819 283.6334 15.08822212 58208,6917.935,95.439,540.801,538.798,0.0
54762.0,STARLINK-5214,PAYLOAD,2023-12-25 10:43:04,15.08839498,0.0001714,53.2186,59.0714,129.5398,230.5746,0.00037669,5.712e-05,0.0,0 STARLINK-5214,1 54762U 22175E   23359.44657800  .00005712  00000-0  37669-3 0  9996,2 54762  53.2186  59.0714 0001714 129.5398 230.5746 15.08839498 56190,6917.882,95.438,540.933,538.561,0.0
54762.0,STARLINK-5214,PAYLOAD,2023-12-26 10:33:50,15.08865112,0.0001361,53.2179,54.6152,77.1067,283.0077,0.00065396,0.00010142,0.0,0 STARLINK-5214,1 54762U 22175E   23360.44017033  .00010142  00000-0  65396-3 0  9997,2 54762  53.2179  54.6152 0001361  77.1067 283.0077 15.08865112 56347,6917.804,95.436,540.61,538.727,0.0
54762.0,STARLINK-5214,PAYLOAD,2023-12-27 04:03:04,15.08853889,0.0001203,53.2183,51.3437,102.5178,257.5949,0.00020203,2.93e-05,0.0,0 STARLINK-5214,1 54762U 22175E   23361.16880724  .00002930  00000-0  20203-3 0  9996,2 54762  53.2183  51.3437 0001203 102.5178 257.5949 15.08853889 56457,6917.838,95.437,540.535,538.871,0.0
54762.0,STARLINK-5214,PAYLOAD,2023-12-27 10:24:37,15.08855113,0.0001559,53.2189,50.1581,101.8806,258.2361,0.00030152,4.516e-05,0.0,0 STARLINK-5214,1 54762U 22175E   23361.43376537  .00004516  00000-0  30152-3 0  9994,2 54762  53.2189  50.1581 0001559 101.8806 258.2361 15.08855113 58656,6917.834,95.437,540.778,538.621,0.0
54762.0,STARLINK-5214,PAYLOAD,2023-12-28 03:53:51,15.08843766,0.0001916,53.2193,46.8845,104.7057,255.4148,4.1137e-05,3.67e-06,0.0,0 STARLINK-5214,1 54762U 22175E   23362.16240658  .00000367  00000-0  41137-4 0  9995,2 54762  53.2193  46.8845 0001916 104.7057 255.4148 15.08843766 56609,6917.869,95.437,541.059,538.408,0.0
54762.0,STARLINK-5214,PAYLOAD,2023-12-28 08:40:01,15.08842064,0.0001562,53.2182,45.9925,102.2134,257.9033,-0.00012025,-2.201e-05,0.0,0 STARLINK-5214,1 54762U 22175E   23362.36112643 -.00002201  00000-0 -12025-3 0  9993,2 54762  53.2182  45.9925 0001562 102.2134 257.9033 15.08842064 58794,6917.874,95.437,540.82,538.659,0.0
54762.0,STARLINK-5214,PAYLOAD,2023-12-29 03:44:39,15.08833748,0.0001587,53.2183,42.4222,102.6433,257.4737,7.9105e-05,9.71e-06,0.0,0 STARLINK-5214,1 54762U 22175E   23363.15601216  .00000971  00000-0  79105-4 0  9993,2 54762  53.2183  42.4222 0001587 102.6433 257.4737 15.08833748 56759,6917.899,95.438,540.862,538.667,0.0
54762.0,STARLINK-5214,PAYLOAD,2023-12-29 10:06:12,15.08834512,0.0001553,53.2178,41.2331,94.8372,265.2798,0.00026311,3.901e-05,0.0,0 STARLINK-5214,1 54762U 22175E   23363.42097323  .00003901  00000-0  26311-3 0  9997,2 54762  53.2178  41.2331 0001553  94.8372 265.2798 15.08834512 58956,6917.897,95.438,540.837,538.688,0.0
54762.0,STARLINK-5214,PAYLOAD,2023-12-30 11:32:21,15.08842974,0.0001428,53.2176,36.4732,87.4635,272.6521,0.00016191,2.29e-05,0.0,0 STARLINK-5214,1 54762U 22175E   23364.48080979  .00002290  00000-0  16191-3 0  9998,2 54762  53.2176  36.4732 0001428  87.4635 272.6521 15.08842974 56951,6917.871,95.437,540.724,538.748,0.0
54762.0,STARLINK-5214,PAYLOAD,2023-12-31 11:23:09,15.08841877,0.0001613,53.2185,32.0118,81.8887,278.2288,6.4239e-05,7.35e-06,0.0,0 STARLINK-5214,1 54762U 22175E   23365.47441432  .00000735  00000-0  64239-4 0  9992,2 54762  53.2185  32.0118 0001613  81.8887 278.2288 15.08841877 57105,6917.875,95.437,540.856,538.624,0.0
54762.0,STARLINK-5214,PAYLOAD,2024-01-01 08:03:10,15.08844223,0.0001481,53.2176,28.148,93.7746,266.3416,2.9351e-05,1.79e-06,0.0,0 STARLINK-5214,1 54762U 22175E   24001.33553358  .00000179  00000-0  29351-4 0  9994,2 54762  53.2176  28.1480 0001481  93.7746 266.3416 15.08844223 59394,6917.867,95.437,540.757,538.708,0.0
54762.0,STARLINK-5214,PAYLOAD,2024-01-02 04:43:10,15.08843258,0.0001539,53.2176,24.2827,95.7317,264.3851,9.2884e-05,1.191e-05,0.0,0 STARLINK-5214,1 54762U 22175E   24002.19665267  .00001191  00000-0  92884-4 0  9998,2 54762  53.2176  24.2827 0001539  95.7317 264.3851 15.08843258 57369,6917.87,95.437,540.8,538.671,0.0
54762.0,STARLINK-5214,PAYLOAD,2024-01-02 06:18:33,15.0884381,0.0001538,53.2177,23.9854,96.0675,264.0493,9.5222e-05,1.228e-05,0.0,0 STARLINK-5214,1 54762U 22175E   24002.26289216  .00001228  00000-0  95222-4 0  9992,2 54762  53.2177  23.9854 0001538  96.0675 264.0493 15.08843810 59530,6917.869,95.437,540.798,538.67,0.0
54762.0,STARLINK-5214,PAYLOAD,2024-01-02 23:47:48,15.08838342,0.0001494,53.2175,20.715,91.8137,268.3026,4.8873e-05,4.9e-06,0.0,0 STARLINK-5214,1 54762U 22175E   24002.99153698  .00000490  00000-0  48873-4 0  9996,2 54762  53.2175  20.7150 0001494  91.8137 268.3026 15.08838342 57484,6917.885,95.438,540.784,538.717,0.0
54762.0,STARLINK-5214,PAYLOAD,2024-01-03 10:55:30,15.08838125,0.0001522,53.2176,18.6328,96.9458,263.1707,2.3341e-05,8.3e-07,0.0,0 STARLINK-5214,1 54762U 22175E   24003.45521769  .00000083  00000-0  23341-4 0  9997,2 54762  53.2176  18.6328 0001522  96.9458 263.1707 15.08838125 59718,6917.886,95.438,540.804,538.698,0.0
54762.0,STARLINK-5214,PAYLOAD,2024-01-04 04:24:45,15.0883675,0.000153,53.2175,15.3613,99.7153,260.4012,1.1739e-05,-1.01e-06,0.0,0 STARLINK-5214,1 54762U 22175E   24004.18386003 -.00000101  00000-0  11739-4 0  9998,2 54762  53.2175  15.3613 0001530  99.7153 260.4012 15.08836750 57663,6917.89,95.438,540.814,538.697,0.0
54762.0,STARLINK-5214,PAYLOAD,2024-01-04 06:00:08,15.08837881,0.0001535,53.2173,15.0638,98.5622,261.5544,1.949e-05,2.2e-07,0.0,0 STARLINK-5214,1 54762U 22175E   24004.25009906  .00000022  00000-0  19490-4 0  9993,2 54762  53.2173  15.0638 0001535  98.5622 261.5544 15.08837881 59837,6917.887,95.438,540.814,538.69,0.0
54762.0,STARLINK-5214,PAYLOAD,2024-01-04 20:18:37,15.08832138,0.00016,53.2171,12.3864,109.5583,250.5581,5.9992e-05,6.67e-06,0.0,0 STARLINK-5214,1 54762U 22175E   24004.84626185  .00000667  00000-0  59992-4 0  9998,2 54762  53.2171  12.3864 0001600 109.5583 250.5581 15.08832138 59927,6917.904,95.438,540.876,538.663,0.0
54762.0,STARLINK-5214,PAYLOAD,2024-01-05 10:37:05,15.088304,0.0001639,53.2176,9.7113,119.2033,240.9123,8.0136e-05,9.87e-06,0.0,0 STARLINK-5214,1 54762U 22175E   24005.44242567  .00000987  00000-0  80136-4 0  9992,2 54762  53.2176   9.7113 0001639 119.2033 240.9123 15.08830400 57854,6917.91,95.438,540.909,538.641,0.0
